{
  "type": "FeatureCollection",
  "features": [
    {
      "type": "Feature",
      "properties": {
        "norad_id": 56564,
        "name": "BEIDOU-3 G4 (C62)",
        "group": "gnss",
        "lat": 0.13447783938193583,
        "lon": 113.39639981797508,
        "alt_km": 35780.735153249654,
        "timestamp": "2025-12-08T15:42:50.034340+00:00",
        "meta_object_name": "BEIDOU-3 G4 (C62)",
        "meta_object_id": "2023-066A",
        "meta_epoch": "2025-12-08T05:48:19.884384",
        "meta_mean_motion": 1.0027111,
        "meta_eccentricity": 0.00030725,
        "meta_inclination": 0.825,
        "meta_ra_of_asc_node": 301.6947,
        "meta_arg_of_pericenter": 236.2465,
        "meta_mean_anomaly": 146.4607,
        "meta_ephemeris_type": 0,
        "meta_classification_type": "U",
        "meta_norad_cat_id": 56564,
        "meta_element_set_no": 999,
        "meta_rev_at_epoch": 948,
        "meta_bstar": 0,
        "meta_mean_motion_dot": -1.08e-06,
        "meta_mean_motion_ddot": 0,
        "tle_line1": "1 56564U 23066A   25342.24189681 -.00000108  00000+0  00000+0 0  9996",
        "tle_line2": "2 56564   0.8250 301.6947 0003072 236.2465 146.4607  1.00271110  9485"
      },
      "geometry": {
        "type": "Point",
        "coordinates": [
          113.39639981797508,
          0.13447783938193583
        ]
      }
    },
    {
      "type": "Feature",
      "properties": {
        "norad_id": 56759,
        "name": "NVS-01 (IRNSS-1J)",
        "group": "gnss",
        "lat": -0.48161367654391407,
        "lon": 82.7921797266774,
        "alt_km": 35824.8182916342,
        "timestamp": "2025-12-08T15:42:50.034353+00:00",
        "meta_object_name": "NVS-01 (IRNSS-1J)",
        "meta_object_id": "2023-076A",
        "meta_epoch": "2025-12-08T07:22:20.554176",
        "meta_mean_motion": 1.00265161,
        "meta_eccentricity": 0.000869,
        "meta_inclination": 2.6293,
        "meta_ra_of_asc_node": 251.7602,
        "meta_arg_of_pericenter": 8.1194,
        "meta_mean_anomaly": 57.4793,
        "meta_ephemeris_type": 0,
        "meta_classification_type": "U",
        "meta_norad_cat_id": 56759,
        "meta_element_set_no": 999,
        "meta_rev_at_epoch": 920,
        "meta_bstar": 0,
        "meta_mean_motion_dot": -3.33e-06,
        "meta_mean_motion_ddot": 0,
        "tle_line1": "1 56759U 23076A   25342.30718234 -.00000333  00000+0  00000+0 0  9992",
        "tle_line2": "2 56759   2.6293 251.7602 0008690   8.1194  57.4793  1.00265161  9203"
      },
      "geometry": {
        "type": "Point",
        "coordinates": [
          82.7921797266774,
          -0.48161367654391407
        ]
      }
    },
    {
      "type": "Feature",
      "properties": {
        "norad_id": 57517,
        "name": "COSMOS 2569 (703K)",
        "group": "gnss",
        "lat": -53.08494588585934,
        "lon": 41.127369990171275,
        "alt_km": 19109.874035969315,
        "timestamp": "2025-12-08T15:42:50.034364+00:00",
        "meta_object_name": "COSMOS 2569 (703K)",
        "meta_object_id": "2023-114A",
        "meta_epoch": "2025-12-07T19:07:05.045952",
        "meta_mean_motion": 2.13103857,
        "meta_eccentricity": 0.00103488,
        "meta_inclination": 65.1916,
        "meta_ra_of_asc_node": 79.0806,
        "meta_arg_of_pericenter": 287.0317,
        "meta_mean_anomaly": 72.8691,
        "meta_ephemeris_type": 0,
        "meta_classification_type": "U",
        "meta_norad_cat_id": 57517,
        "meta_element_set_no": 999,
        "meta_rev_at_epoch": 1818,
        "meta_bstar": 0,
        "meta_mean_motion_dot": -1.2e-07,
        "meta_mean_motion_ddot": 0,
        "tle_line1": "1 57517U 23114A   25341.79658618 -.00000012  00000+0  00000+0 0  9993",
        "tle_line2": "2 57517  65.1916  79.0806 0010348 287.0317  72.8691  2.13103857 18180"
      },
      "geometry": {
        "type": "Point",
        "coordinates": [
          41.127369990171275,
          -53.08494588585934
        ]
      }
    },
    {
      "type": "Feature",
      "properties": {
        "norad_id": 58654,
        "name": "BEIDOU-3 M28 (C50)",
        "group": "gnss",
        "lat": -13.548596492685014,
        "lon": 59.25319025877596,
        "alt_km": 21528.71491043165,
        "timestamp": "2025-12-08T15:42:50.034390+00:00",
        "meta_object_name": "BEIDOU-3 M28 (C50)",
        "meta_object_id": "2023-207A",
        "meta_epoch": "2025-12-06T12:45:22.310208",
        "meta_mean_motion": 1.86229594,
        "meta_eccentricity": 0.00021908,
        "meta_inclination": 55.5792,
        "meta_ra_of_asc_node": 68.8117,
        "meta_arg_of_pericenter": 267.5881,
        "meta_mean_anomaly": 92.402,
        "meta_ephemeris_type": 0,
        "meta_classification_type": "U",
        "meta_norad_cat_id": 58654,
        "meta_element_set_no": 999,
        "meta_rev_at_epoch": 1325,
        "meta_bstar": 0,
        "meta_mean_motion_dot": -4.7e-07,
        "meta_mean_motion_ddot": 0,
        "tle_line1": "1 58654U 23207A   25340.53150822 -.00000047  00000+0  00000+0 0  9992",
        "tle_line2": "2 58654  55.5792  68.8117 0002190 267.5881  92.4020  1.86229594 13257"
      },
      "geometry": {
        "type": "Point",
        "coordinates": [
          59.25319025877596,
          -13.548596492685014
        ]
      }
    },
    {
      "type": "Feature",
      "properties": {
        "norad_id": 58655,
        "name": "BEIDOU-3 M26 (C48)",
        "group": "gnss",
        "lat": 46.12398839229732,
        "lon": -156.66224534773957,
        "alt_km": 21529.551432610264,
        "timestamp": "2025-12-08T15:42:50.034404+00:00",
        "meta_object_name": "BEIDOU-3 M26 (C48)",
        "meta_object_id": "2023-207B",
        "meta_epoch": "2025-12-07T09:40:28.837056",
        "meta_mean_motion": 1.86231105,
        "meta_eccentricity": 0.0003615,
        "meta_inclination": 55.5821,
        "meta_ra_of_asc_node": 68.7685,
        "meta_arg_of_pericenter": 253.2983,
        "meta_mean_anomaly": 106.6805,
        "meta_ephemeris_type": 0,
        "meta_classification_type": "U",
        "meta_norad_cat_id": 58655,
        "meta_element_set_no": 999,
        "meta_rev_at_epoch": 1325,
        "meta_bstar": 0,
        "meta_mean_motion_dot": -4.6e-07,
        "meta_mean_motion_ddot": 0,
        "tle_line1": "1 58655U 23207B   25341.40311154 -.00000046  00000+0  00000+0 0  9996",
        "tle_line2": "2 58655  55.5821  68.7685 0003615 253.2983 106.6805  1.86231105 13258"
      },
      "geometry": {
        "type": "Point",
        "coordinates": [
          -156.66224534773957,
          46.12398839229732
        ]
      }
    },
    {
      "type": "Feature",
      "properties": {
        "norad_id": 59598,
        "name": "GSAT0225 (GALILEO 29)",
        "group": "gnss",
        "lat": -49.84435340989277,
        "lon": 50.33772713961358,
        "alt_km": 23230.463205043085,
        "timestamp": "2025-12-08T15:42:50.034418+00:00",
        "meta_object_name": "GSAT0225 (GALILEO 29)",
        "meta_object_id": "2024-079A",
        "meta_epoch": "2025-12-07T07:17:21.433056",
        "meta_mean_motion": 1.70474562,
        "meta_eccentricity": 0.00020328,
        "meta_inclination": 54.9984,
        "meta_ra_of_asc_node": 106.4468,
        "meta_arg_of_pericenter": 173.4457,
        "meta_mean_anomaly": 8.4253,
        "meta_ephemeris_type": 0,
        "meta_classification_type": "U",
        "meta_norad_cat_id": 59598,
        "meta_element_set_no": 999,
        "meta_rev_at_epoch": 1004,
        "meta_bstar": 0,
        "meta_mean_motion_dot": 7e-08,
        "meta_mean_motion_ddot": 0,
        "tle_line1": "1 59598U 24079A   25341.30372029  .00000007  00000+0  00000+0 0  9994",
        "tle_line2": "2 59598  54.9984 106.4468 0002032 173.4457   8.4253  1.70474562 10047"
      },
      "geometry": {
        "type": "Point",
        "coordinates": [
          50.33772713961358,
          -49.84435340989277
        ]
      }
    },
    {
      "type": "Feature",
      "properties": {
        "norad_id": 59600,
        "name": "GSAT0227 (GALILEO 30)",
        "group": "gnss",
        "lat": 1.1372086732260258,
        "lon": -74.39919875022194,
        "alt_km": 23218.001183227912,
        "timestamp": "2025-12-08T15:42:50.034430+00:00",
        "meta_object_name": "GSAT0227 (GALILEO 30)",
        "meta_object_id": "2024-079C",
        "meta_epoch": "2025-12-06T14:29:58.537536",
        "meta_mean_motion": 1.70474646,
        "meta_eccentricity": 0.00033412,
        "meta_inclination": 54.9931,
        "meta_ra_of_asc_node": 106.4659,
        "meta_arg_of_pericenter": 113.7646,
        "meta_mean_anomaly": 246.2238,
        "meta_ephemeris_type": 0,
        "meta_classification_type": "U",
        "meta_norad_cat_id": 59600,
        "meta_element_set_no": 999,
        "meta_rev_at_epoch": 1008,
        "meta_bstar": 0,
        "meta_mean_motion_dot": 6e-08,
        "meta_mean_motion_ddot": 0,
        "tle_line1": "1 59600U 24079C   25340.60414974  .00000006  00000+0  00000+0 0  9995",
        "tle_line2": "2 59600  54.9931 106.4659 0003341 113.7646 246.2238  1.70474646 10088"
      },
      "geometry": {
        "type": "Point",
        "coordinates": [
          -74.39919875022194,
          1.1372086732260258
        ]
      }
    }
  ]
}